IRIDIUM 26              
1 24903U 97043A   25341.12960854  .00000693  00000+0  22585-3 0  9993
2 24903  86.3965  37.9209 0002018  98.0549 262.0877 14.37320791481588
IRIDIUM 22              
1 24907U 97043E   25341.13356661  .00000626  00000+0  20834-3 0  9994
2 24907  86.3969  41.6074 0002199  97.1387 263.0060 14.36115945481596
DUMMY MASS 1            
1 24925U 97048A   25341.22096229  .00000816  00000+0  87696-4 0  9991
2 24925  86.3349  55.2602 0004430 243.9782 116.0987 14.87175683530845
DUMMY MASS 2            
1 24926U 97048B   25341.21201117  .00000825  00000+0  89263-4 0  9997
2 24926  86.3350  56.9043 0005033 262.4857  97.5796 14.86926243530615
IRIDIUM 29              
1 24944U 97051A   25341.23309578  .00000829  00000+0  27517-3 0  9990
2 24944  86.3955  71.2555 0002279  93.9421 266.2036 14.36655282478112
IRIDIUM 33              
1 24946U 97051C   25341.19792080  .00000657  00000+0  22393-3 0  9997
2 24946  86.3870  70.5476 0006446 221.2361 138.8349 14.35031214477553
IRIDIUM 28              
1 24948U 97051E   25340.95832977  .00000773  00000+0  25144-3 0  9998
2 24948  86.3960  68.7874 0001709 107.0460 253.0925 14.37555036478662
IRIDIUM 36              
1 24967U 97056C   25341.03390863  .00000806  00000+0  26138-3 0  9998
2 24967  86.3957 100.3836 0001988 102.0058 258.1363 14.37775615477058
